[{"OBJECT_NAME":"STARLINK-35335","OBJECT_ID":"2025-243D","EPOCH":"2026-03-09T18:29:14.056512","MEAN_MOTION":15.30202745,"ECCENTRICITY":9.544e-5,"INCLINATION":53.158,"RA_OF_ASC_NODE":245.0526,"ARG_OF_PERICENTER":68.2422,"MEAN_ANOMALY":291.8681,"EPHEMERIS_TYPE":0,"CLASSIFICATION_TYPE":"U","NORAD_CAT_ID":66180,"ELEMENT_SET_NO":999,"REV_AT_EPOCH":2066,"BSTAR":0.0011409716,"MEAN_MOTION_DOT":0.00033589,"MEAN_MOTION_DDOT":0},{"OBJECT_NAME":"KSLV-II R\/B","OBJECT_ID":"2023-072H","EPOCH":"2026-03-09T20:13:26.441760","MEAN_MOTION":15.33109439,"ECCENTRICITY":0.00241884,"INCLINATION":97.4991,"RA_OF_ASC_NODE":274.152,"ARG_OF_PERICENTER":318.2938,"MEAN_ANOMALY":41.646,"EPHEMERIS_TYPE":0,"CLASSIFICATION_TYPE":"U","NORAD_CAT_ID":56750,"ELEMENT_SET_NO":999,"REV_AT_EPOCH":15516,"BSTAR":0.00028309532,"MEAN_MOTION_DOT":9.057e-5,"MEAN_MOTION_DDOT":0}]
